ORBCOMM FM33            
1 25983U 99065D   25336.24021519  .00001711  00000+0  57716-3 0  9997
2 25983  45.0292 279.7238 0007303 200.2988 159.7572 14.40488900360295
ORBCOMM FM36            
1 25984U 99065E   25336.83838234  .00001783  00000+0  62224-3 0  9992
2 25984  45.0403  11.3656 0000755  37.5557 322.5345 14.38665012358700
ORBCOMM FM35            
1 25985U 99065F   25336.59432796  .00001499  00000+0  54229-3 0  9999
2 25985  45.0406  18.9238 0004174 192.1431 167.9317 14.37575594359010
ORBCOMM FM34            
1 25986U 99065G   25336.83858388  .00001270  00000+0  46720-3 0  9990
2 25986  45.0400  18.2318 0002427 143.2123 216.8892 14.37533035359163
ORBCOMM FM38            
1 33060U 08031A   25336.12918145  .00002334  00000+0  31646-3 0  9998
2 33060  48.4391 234.4446 0004575  44.2222 315.9059 14.82189108939653
ORBCOMM FM41            
1 33061U 08031B   25336.48262226  .00002807  00000+0  37902-3 0  9996
2 33061  48.4428 241.1322 0003851  27.8359 142.8986 14.81749661939186
ORBCOMM FM29            
1 33062U 08031C   25336.83971323  .00002989  00000+0  40042-3 0  9991
2 33062  48.4381 247.0142 0005541  29.6267  42.8950 14.81894254939152
ORBCOMM FM39            
1 33063U 08031D   25336.21687230  .00002621  00000+0  36762-3 0  9992
2 33063  48.4398 276.1547 0006735 356.0746   4.0116 14.80335136938687
