<?xml version="1.0" encoding="UTF-8"?>
<ndm xmlns:xsi="http://www.w3.org/2001/XMLSchema-instance" xsi:noNamespaceSchemaLocation="https://sanaregistry.org/r/ndmxml_unqualified/ndmxml-2.0.0-master-2.0.xsd">
<omm id="CCSDS_OMM_VERS" version="2.0">
<header><CREATION_DATE/><ORIGINATOR/></header><body><segment><metadata><OBJECT_NAME>ORBCOMM FM33</OBJECT_NAME><OBJECT_ID>1999-065D</OBJECT_ID><CENTER_NAME>EARTH</CENTER_NAME><REF_FRAME>TEME</REF_FRAME><TIME_SYSTEM>UTC</TIME_SYSTEM><MEAN_ELEMENT_THEORY>SGP4</MEAN_ELEMENT_THEORY></metadata><data><meanElements><EPOCH>2025-12-02T05:45:54.592416</EPOCH><MEAN_MOTION>14.40488900</MEAN_MOTION><ECCENTRICITY>.0007303</ECCENTRICITY><INCLINATION>45.0292</INCLINATION><RA_OF_ASC_NODE>279.7238</RA_OF_ASC_NODE><ARG_OF_PERICENTER>200.2988</ARG_OF_PERICENTER><MEAN_ANOMALY>159.7572</MEAN_ANOMALY></meanElements><tleParameters><EPHEMERIS_TYPE>0</EPHEMERIS_TYPE><CLASSIFICATION_TYPE>U</CLASSIFICATION_TYPE><NORAD_CAT_ID>25983</NORAD_CAT_ID><ELEMENT_SET_NO>999</ELEMENT_SET_NO><REV_AT_EPOCH>36029</REV_AT_EPOCH><BSTAR>.57716E-3</BSTAR><MEAN_MOTION_DOT>.1711E-4</MEAN_MOTION_DOT><MEAN_MOTION_DDOT>0</MEAN_MOTION_DDOT></tleParameters></data></segment></body></omm>
<omm id="CCSDS_OMM_VERS" version="2.0">
<header><CREATION_DATE/><ORIGINATOR/></header><body><segment><metadata><OBJECT_NAME>ORBCOMM FM36</OBJECT_NAME><OBJECT_ID>1999-065E</OBJECT_ID><CENTER_NAME>EARTH</CENTER_NAME><REF_FRAME>TEME</REF_FRAME><TIME_SYSTEM>UTC</TIME_SYSTEM><MEAN_ELEMENT_THEORY>SGP4</MEAN_ELEMENT_THEORY></metadata><data><meanElements><EPOCH>2025-12-02T20:07:16.234176</EPOCH><MEAN_MOTION>14.38665012</MEAN_MOTION><ECCENTRICITY>.0000755</ECCENTRICITY><INCLINATION>45.0403</INCLINATION><RA_OF_ASC_NODE>11.3656</RA_OF_ASC_NODE><ARG_OF_PERICENTER>37.5557</ARG_OF_PERICENTER><MEAN_ANOMALY>322.5345</MEAN_ANOMALY></meanElements><tleParameters><EPHEMERIS_TYPE>0</EPHEMERIS_TYPE><CLASSIFICATION_TYPE>U</CLASSIFICATION_TYPE><NORAD_CAT_ID>25984</NORAD_CAT_ID><ELEMENT_SET_NO>999</ELEMENT_SET_NO><REV_AT_EPOCH>35870</REV_AT_EPOCH><BSTAR>.62224E-3</BSTAR><MEAN_MOTION_DOT>.1783E-4</MEAN_MOTION_DOT><MEAN_MOTION_DDOT>0</MEAN_MOTION_DDOT></tleParameters></data></segment></body></omm>
<omm id="CCSDS_OMM_VERS" version="2.0">
<header><CREATION_DATE/><ORIGINATOR/></header><body><segment><metadata><OBJECT_NAME>ORBCOMM FM35</OBJECT_NAME><OBJECT_ID>1999-065F</OBJECT_ID><CENTER_NAME>EARTH</CENTER_NAME><REF_FRAME>TEME</REF_FRAME><TIME_SYSTEM>UTC</TIME_SYSTEM><MEAN_ELEMENT_THEORY>SGP4</MEAN_ELEMENT_THEORY></metadata><data><meanElements><EPOCH>2025-12-02T14:15:49.935744</EPOCH><MEAN_MOTION>14.37575594</MEAN_MOTION><ECCENTRICITY>.0004174</ECCENTRICITY><INCLINATION>45.0406</INCLINATION><RA_OF_ASC_NODE>18.9238</RA_OF_ASC_NODE><ARG_OF_PERICENTER>192.1431</ARG_OF_PERICENTER><MEAN_ANOMALY>167.9317</MEAN_ANOMALY></meanElements><tleParameters><EPHEMERIS_TYPE>0</EPHEMERIS_TYPE><CLASSIFICATION_TYPE>U</CLASSIFICATION_TYPE><NORAD_CAT_ID>25985</NORAD_CAT_ID><ELEMENT_SET_NO>999</ELEMENT_SET_NO><REV_AT_EPOCH>35901</REV_AT_EPOCH><BSTAR>.54229E-3</BSTAR><MEAN_MOTION_DOT>.1499E-4</MEAN_MOTION_DOT><MEAN_MOTION_DDOT>0</MEAN_MOTION_DDOT></tleParameters></data></segment></body></omm>
<omm id="CCSDS_OMM_VERS" version="2.0">
<header><CREATION_DATE/><ORIGINATOR/></header><body><segment><metadata><OBJECT_NAME>ORBCOMM FM34</OBJECT_NAME><OBJECT_ID>1999-065G</OBJECT_ID><CENTER_NAME>EARTH</CENTER_NAME><REF_FRAME>TEME</REF_FRAME><TIME_SYSTEM>UTC</TIME_SYSTEM><MEAN_ELEMENT_THEORY>SGP4</MEAN_ELEMENT_THEORY></metadata><data><meanElements><EPOCH>2025-12-02T20:07:33.647232</EPOCH><MEAN_MOTION>14.37533035</MEAN_MOTION><ECCENTRICITY>.0002427</ECCENTRICITY><INCLINATION>45.0400</INCLINATION><RA_OF_ASC_NODE>18.2318</RA_OF_ASC_NODE><ARG_OF_PERICENTER>143.2123</ARG_OF_PERICENTER><MEAN_ANOMALY>216.8892</MEAN_ANOMALY></meanElements><tleParameters><EPHEMERIS_TYPE>0</EPHEMERIS_TYPE><CLASSIFICATION_TYPE>U</CLASSIFICATION_TYPE><NORAD_CAT_ID>25986</NORAD_CAT_ID><ELEMENT_SET_NO>999</ELEMENT_SET_NO><REV_AT_EPOCH>35916</REV_AT_EPOCH><BSTAR>.4672E-3</BSTAR><MEAN_MOTION_DOT>.127E-4</MEAN_MOTION_DOT><MEAN_MOTION_DDOT>0</MEAN_MOTION_DDOT></tleParameters></data></segment></body></omm>
<omm id="CCSDS_OMM_VERS" version="2.0">
<header><CREATION_DATE/><ORIGINATOR/></header><body><segment><metadata><OBJECT_NAME>ORBCOMM FM38</OBJECT_NAME><OBJECT_ID>2008-031A</OBJECT_ID><CENTER_NAME>EARTH</CENTER_NAME><REF_FRAME>TEME</REF_FRAME><TIME_SYSTEM>UTC</TIME_SYSTEM><MEAN_ELEMENT_THEORY>SGP4</MEAN_ELEMENT_THEORY></metadata><data><meanElements><EPOCH>2025-12-02T03:06:01.277280</EPOCH><MEAN_MOTION>14.82189108</MEAN_MOTION><ECCENTRICITY>.00045759</ECCENTRICITY><INCLINATION>48.4391</INCLINATION><RA_OF_ASC_NODE>234.4446</RA_OF_ASC_NODE><ARG_OF_PERICENTER>44.2222</ARG_OF_PERICENTER><MEAN_ANOMALY>315.9059</MEAN_ANOMALY></meanElements><tleParameters><EPHEMERIS_TYPE>0</EPHEMERIS_TYPE><CLASSIFICATION_TYPE>U</CLASSIFICATION_TYPE><NORAD_CAT_ID>33060</NORAD_CAT_ID><ELEMENT_SET_NO>999</ELEMENT_SET_NO><REV_AT_EPOCH>93965</REV_AT_EPOCH><BSTAR>.31645596E-3</BSTAR><MEAN_MOTION_DOT>.2334E-4</MEAN_MOTION_DOT><MEAN_MOTION_DDOT>0</MEAN_MOTION_DDOT></tleParameters></data></segment></body></omm>
<omm id="CCSDS_OMM_VERS" version="2.0">
<header><CREATION_DATE/><ORIGINATOR/></header><body><segment><metadata><OBJECT_NAME>ORBCOMM FM41</OBJECT_NAME><OBJECT_ID>2008-031B</OBJECT_ID><CENTER_NAME>EARTH</CENTER_NAME><REF_FRAME>TEME</REF_FRAME><TIME_SYSTEM>UTC</TIME_SYSTEM><MEAN_ELEMENT_THEORY>SGP4</MEAN_ELEMENT_THEORY></metadata><data><meanElements><EPOCH>2025-12-02T11:34:58.563264</EPOCH><MEAN_MOTION>14.81749661</MEAN_MOTION><ECCENTRICITY>.0003851</ECCENTRICITY><INCLINATION>48.4428</INCLINATION><RA_OF_ASC_NODE>241.1322</RA_OF_ASC_NODE><ARG_OF_PERICENTER>27.8359</ARG_OF_PERICENTER><MEAN_ANOMALY>142.8986</MEAN_ANOMALY></meanElements><tleParameters><EPHEMERIS_TYPE>0</EPHEMERIS_TYPE><CLASSIFICATION_TYPE>U</CLASSIFICATION_TYPE><NORAD_CAT_ID>33061</NORAD_CAT_ID><ELEMENT_SET_NO>999</ELEMENT_SET_NO><REV_AT_EPOCH>93918</REV_AT_EPOCH><BSTAR>.37902E-3</BSTAR><MEAN_MOTION_DOT>.2807E-4</MEAN_MOTION_DOT><MEAN_MOTION_DDOT>0</MEAN_MOTION_DDOT></tleParameters></data></segment></body></omm>
<omm id="CCSDS_OMM_VERS" version="2.0">
<header><CREATION_DATE/><ORIGINATOR/></header><body><segment><metadata><OBJECT_NAME>ORBCOMM FM29</OBJECT_NAME><OBJECT_ID>2008-031C</OBJECT_ID><CENTER_NAME>EARTH</CENTER_NAME><REF_FRAME>TEME</REF_FRAME><TIME_SYSTEM>UTC</TIME_SYSTEM><MEAN_ELEMENT_THEORY>SGP4</MEAN_ELEMENT_THEORY></metadata><data><meanElements><EPOCH>2025-12-02T20:09:11.223072</EPOCH><MEAN_MOTION>14.81894254</MEAN_MOTION><ECCENTRICITY>.0005541</ECCENTRICITY><INCLINATION>48.4381</INCLINATION><RA_OF_ASC_NODE>247.0142</RA_OF_ASC_NODE><ARG_OF_PERICENTER>29.6267</ARG_OF_PERICENTER><MEAN_ANOMALY>42.8950</MEAN_ANOMALY></meanElements><tleParameters><EPHEMERIS_TYPE>0</EPHEMERIS_TYPE><CLASSIFICATION_TYPE>U</CLASSIFICATION_TYPE><NORAD_CAT_ID>33062</NORAD_CAT_ID><ELEMENT_SET_NO>999</ELEMENT_SET_NO><REV_AT_EPOCH>93915</REV_AT_EPOCH><BSTAR>.40042E-3</BSTAR><MEAN_MOTION_DOT>.2989E-4</MEAN_MOTION_DOT><MEAN_MOTION_DDOT>0</MEAN_MOTION_DDOT></tleParameters></data></segment></body></omm>
<omm id="CCSDS_OMM_VERS" version="2.0">
<header><CREATION_DATE/><ORIGINATOR/></header><body><segment><metadata><OBJECT_NAME>ORBCOMM FM39</OBJECT_NAME><OBJECT_ID>2008-031D</OBJECT_ID><CENTER_NAME>EARTH</CENTER_NAME><REF_FRAME>TEME</REF_FRAME><TIME_SYSTEM>UTC</TIME_SYSTEM><MEAN_ELEMENT_THEORY>SGP4</MEAN_ELEMENT_THEORY></metadata><data><meanElements><EPOCH>2025-12-02T05:12:17.766720</EPOCH><MEAN_MOTION>14.80335136</MEAN_MOTION><ECCENTRICITY>.0006735</ECCENTRICITY><INCLINATION>48.4398</INCLINATION><RA_OF_ASC_NODE>276.1547</RA_OF_ASC_NODE><ARG_OF_PERICENTER>356.0746</ARG_OF_PERICENTER><MEAN_ANOMALY>4.0116</MEAN_ANOMALY></meanElements><tleParameters><EPHEMERIS_TYPE>0</EPHEMERIS_TYPE><CLASSIFICATION_TYPE>U</CLASSIFICATION_TYPE><NORAD_CAT_ID>33063</NORAD_CAT_ID><ELEMENT_SET_NO>999</ELEMENT_SET_NO><REV_AT_EPOCH>93868</REV_AT_EPOCH><BSTAR>.36762E-3</BSTAR><MEAN_MOTION_DOT>.2621E-4</MEAN_MOTION_DOT><MEAN_MOTION_DDOT>0</MEAN_MOTION_DDOT></tleParameters></data></segment></body></omm>

</ndm>
